OBJECT_NAME,OBJECT_ID,EPOCH,MEAN_MOTION,ECCENTRICITY,INCLINATION,RA_OF_ASC_NODE,ARG_OF_PERICENTER,MEAN_ANOMALY,EPHEMERIS_TYPE,CLASSIFICATION_TYPE,NORAD_CAT_ID,ELEMENT_SET_NO,REV_AT_EPOCH,BSTAR,MEAN_MOTION_DOT,MEAN_MOTION_DDOT
FENGYUN 3D,2017-072A,2026-06-18T16:44:50.362368,14.19739734,.0002507,99.0128,144.1478,61.0658,299.0768,0,U,43010,999,44520,.82226E-4,.128E-5,0
NOAA 20 (JPSS-1),2017-073A,2026-06-18T16:37:55.822944,14.19511959,.0000312,98.7770,109.1422,108.8683,251.2527,0,U,43013,999,44468,.37627E-4,.35E-6,0
GOES 17,2018-022A,2026-06-18T15:54:47.035296,1.00269555,.0000487,0.9419,85.6818,28.3678,302.0233,0,U,43226,999,3043,0,-.189E-5,0
SENTINEL-3B,2018-039A,2026-06-18T14:12:55.361088,14.26735069,.0000722,98.6249,237.1045,91.3758,268.7505,0,U,43437,999,42432,.49671E-4,.77E-6,0
FENGYUN 2H,2018-050A,2026-06-18T15:00:36.694944,1.00269447,.0001967,3.0356,79.0525,138.2508,354.1055,0,U,43491,999,2945,0,-.137E-5,0
METOP-C,2018-087A,2026-06-18T16:29:13.096032,14.21512497,.0001815,98.6645,229.2632,127.6309,232.5033,0,U,43689,999,39504,.55244E-4,.78E-6,0
GEO-KOMPSAT-2A,2018-100A,2026-06-18T16:30:17.025984,1.00269231,.000185,0.0489,157.3740,290.3830,194.9905,0,U,43823,999,2764,0,-.35E-5,0
METEOR-M2 2,2019-038A,2026-06-18T17:16:34.296960,14.24366581,.0002016,98.9144,157.0282,45.7880,314.3464,0,U,44387,999,36151,.64647E-4,.104E-5,0
ARKTIKA-M 1,2021-016A,2026-06-17T11:46:36.471360,2.00622504,.72885287,63.2922,57.5948,269.9420,14.6012,0,U,47719,999,3879,0,-.21E-5,0
FENGYUN 3E,2021-062A,2026-06-18T18:02:50.129376,14.19903773,.0002846,98.7489,173.1427,83.4436,276.7064,0,U,49008,999,25680,-.94369E-4,-.244E-5,0
GOES 18,2022-021A,2026-06-18T15:41:33.301824,1.00271196,.0000337,0.0106,103.6188,41.1430,220.5043,0,U,51850,999,660,0,.9E-6,0
NOAA 21 (JPSS-2),2022-150A,2026-06-18T15:43:43.972320,14.19565671,.0001753,98.7058,108.4200,150.5562,209.5713,0,U,54234,999,18675,.42011E-4,.45E-6,0
METEOSAT-12 (MTG-I1),2022-170C,2026-06-18T14:37:50.227104,1.00273006,.0003226,0.7400,23.2518,70.9030,31.7458,0,U,54743,999,1299,0,-.14E-6,0
TIANMU-1 03,2023-039A,2026-06-18T17:33:31.908384,15.47320810,.0004157,97.5236,343.7606,95.2592,264.9132,0,U,55973,999,18107,.23446E-3,.11879E-3,0
TIANMU-1 04,2023-039B,2026-06-18T17:17:31.188768,15.47919259,.000484,97.5172,342.9031,91.9079,268.2725,0,U,55974,999,18108,.23807E-3,.12319E-3,0
TIANMU-1 05,2023-039C,2026-06-18T17:05:56.237280,15.47246676,.0004035,97.5219,343.3551,111.5409,248.6271,0,U,55975,999,18105,.23393E-3,.11821E-3,0
TIANMU-1 06,2023-039D,2026-06-18T17:22:31.315584,15.47823076,.0004389,97.5224,344.0045,106.8767,253.2964,0,U,55976,999,18108,.23832E-3,.12289E-3,0
FENGYUN 3G,2023-055A,2026-06-18T14:04:49.639296,15.52683224,.000703,49.9937,338.8093,302.3922,57.6364,0,U,56232,999,18022,.3057E-3,.18824E-3,0
METEOR-M2 3,2023-091A,2026-06-18T17:08:53.181888,14.24046927,.0004429,98.6090,224.6616,151.5665,208.5757,0,U,57166,999,15473,.1319E-4,-.13E-6,0
TIANMU-1 07,2023-101A,2026-06-18T17:38:56.677344,15.29822340,.0004157,97.2586,220.3683,118.3680,241.7981,0,U,57399,999,16188,.17053E-3,.4852E-4,0
TIANMU-1 08,2023-101B,2026-06-18T16:50:54.160800,15.29827169,.0005632,97.2576,220.1062,111.5115,248.6726,0,U,57400,999,16187,.17672E-3,.5032E-4,0
TIANMU-1 09,2023-101C,2026-06-18T16:26:58.553088,15.29858135,.0004662,97.2533,219.5048,123.2850,236.8838,0,U,57401,999,16187,.17581E-3,.501E-4,0
TIANMU-1 10,2023-101D,2026-06-18T17:14:36.546720,15.29830268,.0006232,97.2613,220.5893,122.2933,237.8913,0,U,57402,999,16187,.18008E-3,.513E-4,0
FENGYUN 3F,2023-111A,2026-06-18T17:39:37.490112,14.19939385,.0001589,98.6842,239.7157,92.3106,267.8253,0,U,57490,999,14908,.44151E-4,.5E-6,0
ARKTIKA-M 2,2023-198A,2026-06-17T18:13:15.259296,2.00612717,.6902344,63.2243,154.2919,267.4286,18.7609,0,U,58584,999,1833,0,.145E-5,0
TIANMU-1 11,2023-205A,2026-06-18T16:36:07.417728,15.27008401,.0008769,97.3443,191.2251,12.1782,347.9667,0,U,58645,999,13775,.16503E-3,.4305E-4,0
TIANMU-1 12,2023-205B,2026-06-18T17:27:51.893280,15.26973815,.0006542,97.3431,191.0159,358.1455,1.9759,0,U,58646,999,13774,.17352E-3,.4524E-4,0
TIANMU-1 13,2023-205C,2026-06-18T16:40:02.672832,15.26826682,.000573,97.3460,191.2560,335.5171,24.5795,0,U,58647,999,13773,.16881E-3,.4378E-4,0
TIANMU-1 14,2023-205D,2026-06-18T16:18:40.706784,15.26871212,.0006667,97.3395,190.4220,339.7774,20.3200,0,U,58648,999,13773,.16998E-3,.4416E-4,0
TIANMU-1 19,2023-208A,2026-06-18T17:23:00.873888,15.31592655,.0003727,97.4510,286.0318,321.2575,38.8399,0,U,58660,999,13756,.21094E-3,.6357E-4,0
TIANMU-1 20,2023-208B,2026-06-18T18:15:43.257312,15.32783943,.0005901,97.4452,286.7055,327.3950,32.6926,0,U,58661,999,13766,.20383E-3,.6376E-4,0
