FENGYUN 3D              
1 43010U 17072A   26169.69780512  .00000128  00000+0  82226-4 0  9991
2 43010  99.0128 144.1478 0002507  61.0658 299.0768 14.19739734445202
NOAA 20 (JPSS-1)        
1 43013U 17073A   26169.69300721  .00000035  00000+0  37627-4 0  9997
2 43013  98.7770 109.1422 0000312 108.8683 251.2527 14.19511959444685
GOES 17                 
1 43226U 18022A   26169.66304439 -.00000189  00000+0  00000+0 0  9996
2 43226   0.9419  85.6818 0000487  28.3678 302.0233  1.00269555 30437
SENTINEL-3B             
1 43437U 18039A   26169.59230742  .00000077  00000+0  49671-4 0  9992
2 43437  98.6249 237.1045 0000722  91.3758 268.7505 14.26735069424328
FENGYUN 2H              
1 43491U 18050A   26169.62542471 -.00000137  00000+0  00000+0 0  9990
2 43491   3.0356  79.0525 0001967 138.2508 354.1055  1.00269447 29454
METOP-C                 
1 43689U 18087A   26169.68695713  .00000078  00000+0  55244-4 0  9991
2 43689  98.6645 229.2632 0001815 127.6309 232.5033 14.21512497395044
GEO-KOMPSAT-2A          
1 43823U 18100A   26169.68769706 -.00000350  00000+0  00000+0 0  9990
2 43823   0.0489 157.3740 0001850 290.3830 194.9905  1.00269231 27649
METEOR-M2 2             
1 44387U 19038A   26169.71984140  .00000104  00000+0  64647-4 0  9990
2 44387  98.9144 157.0282 0002016  45.7880 314.3464 14.24366581361510
ARKTIKA-M 1             
1 47719U 21016A   26168.49069990 -.00000210  00000+0  00000+0 0  9999
2 47719  63.2922  57.5948 7288528 269.9420  14.6012  2.00622504 38796
FENGYUN 3E              
1 49008U 21062A   26169.75196909 -.00000244  00000+0 -94369-4 0  9998
2 49008  98.7489 173.1427 0002846  83.4436 276.7064 14.19903773256808
GOES 18                 
1 51850U 22021A   26169.65385766  .00000090  00000+0  00000+0 0  9993
2 51850   0.0106 103.6188 0000337  41.1430 220.5043  1.00271196  6606
NOAA 21 (JPSS-2)        
1 54234U 22150A   26169.65537005  .00000045  00000+0  42011-4 0  9993
2 54234  98.7058 108.4200 0001753 150.5562 209.5713 14.19565671186751
METEOSAT-12 (MTG-I1)    
1 54743U 22170C   26169.60960911 -.00000014  00000+0  00000+0 0  9995
2 54743   0.7400  23.2518 0003226  70.9030  31.7458  1.00273006 12997
TIANMU-1 03             
1 55973U 23039A   26169.73161931  .00011879  00000+0  23446-3 0  9998
2 55973  97.5236 343.7606 0004157  95.2592 264.9132 15.47320810181076
TIANMU-1 04             
1 55974U 23039B   26169.72049987  .00012319  00000+0  23807-3 0  9995
2 55974  97.5172 342.9031 0004840  91.9079 268.2725 15.47919259181088
TIANMU-1 05             
1 55975U 23039C   26169.71245645  .00011821  00000+0  23393-3 0  9991
2 55975  97.5219 343.3551 0004035 111.5409 248.6271 15.47246676181056
TIANMU-1 06             
1 55976U 23039D   26169.72397356  .00012289  00000+0  23832-3 0  9997
2 55976  97.5224 344.0045 0004389 106.8767 253.2964 15.47823076181084
FENGYUN 3G              
1 56232U 23055A   26169.58668564  .00018824  00000+0  30570-3 0  9995
2 56232  49.9937 338.8093 0007030 302.3922  57.6364 15.52683224180228
METEOR-M2 3             
1 57166U 23091A   26169.71450442 -.00000013  00000+0  13190-4 0  9993
2 57166  98.6090 224.6616 0004429 151.5665 208.5757 14.24046927154737
TIANMU-1 07             
1 57399U 23101A   26169.73537821  .00004852  00000+0  17053-3 0  9997
2 57399  97.2586 220.3683 0004157 118.3680 241.7981 15.29822340161882
TIANMU-1 08             
1 57400U 23101B   26169.70201575  .00005032  00000+0  17672-3 0  9999
2 57400  97.2576 220.1062 0005632 111.5115 248.6726 15.29827169161876
TIANMU-1 09             
1 57401U 23101C   26169.68539992  .00005010  00000+0  17581-3 0  9999
2 57401  97.2533 219.5048 0004662 123.2850 236.8838 15.29858135161874
TIANMU-1 10             
1 57402U 23101D   26169.71847855  .00005130  00000+0  18008-3 0  9992
2 57402  97.2613 220.5893 0006232 122.2933 237.8913 15.29830268161872
FENGYUN 3F              
1 57490U 23111A   26169.73585058  .00000050  00000+0  44151-4 0  9991
2 57490  98.6842 239.7157 0001589  92.3106 267.8253 14.19939385149089
ARKTIKA-M 2             
1 58584U 23198A   26168.75920439  .00000145  00000+0  00000+0 0  9993
2 58584  63.2243 154.2919 6902344 267.4286  18.7609  2.00612717 18338
TIANMU-1 11             
1 58645U 23205A   26169.69175252  .00004305  00000+0  16503-3 0  9990
2 58645  97.3443 191.2251 0008769  12.1782 347.9667 15.27008401137755
TIANMU-1 12             
1 58646U 23205B   26169.72768395  .00004524  00000+0  17352-3 0  9997
2 58646  97.3431 191.0159 0006542 358.1455   1.9759 15.26973815137742
TIANMU-1 13             
1 58647U 23205C   26169.69447538  .00004378  00000+0  16881-3 0  9990
2 58647  97.3460 191.2560 0005730 335.5171  24.5795 15.26826682137734
TIANMU-1 14             
1 58648U 23205D   26169.67963781  .00004416  00000+0  16998-3 0  9994
2 58648  97.3395 190.4220 0006667 339.7774  20.3200 15.26871212137735
TIANMU-1 19             
1 58660U 23208A   26169.72431567  .00006357  00000+0  21094-3 0  9998
2 58660  97.4510 286.0318 0003727 321.2575  38.8399 15.31592655137569
TIANMU-1 20             
1 58661U 23208B   26169.76091733  .00006376  00000+0  20383-3 0  9991
2 58661  97.4452 286.7055 0005901 327.3950  32.6926 15.32783943137662
